OBJECT_NAME,OBJECT_ID,EPOCH,MEAN_MOTION,ECCENTRICITY,INCLINATION,RA_OF_ASC_NODE,ARG_OF_PERICENTER,MEAN_ANOMALY,EPHEMERIS_TYPE,CLASSIFICATION_TYPE,NORAD_CAT_ID,ELEMENT_SET_NO,REV_AT_EPOCH,BSTAR,MEAN_MOTION_DOT,MEAN_MOTION_DDOT
STARLINK-34506,2025-129W,2025-10-10T05:25:32.145600,14.98348498,.00020024,70.0023,93.6539,266.8475,93.2455,0,U,64432,999,1869,.15106203E-3,.1711E-4,0
STARLINK-34451,2025-129X,2025-10-09T21:07:07.691232,14.98333148,.0002694,70.0004,94.8529,272.3802,87.7048,0,U,64433,999,1863,.3372E-3,.3933E-4,0
STARLINK-34472,2025-129Y,2025-10-10T04:43:45.954624,14.98334770,.00018916,69.9989,93.9532,272.5118,87.5824,0,U,64434,999,1874,.68776214E-3,.8123E-4,0
STARLINK-34478,2025-129Z,2025-10-10T04:19:42.728160,14.98335406,.00032048,69.9996,93.8953,268.7432,91.3360,0,U,64435,999,1868,.38527096E-3,.4508E-4,0
STARLINK-34396,2025-129AA,2025-10-09T11:18:18.493632,14.98337056,.0003105,69.9998,95.8265,271.8762,88.2041,0,U,64436,999,1857,.44896E-3,.5269E-4,0
STARLINK-34507,2025-129AB,2025-10-09T21:37:08.610240,14.98334457,.0003208,69.9995,94.5233,266.1997,93.8795,0,U,64437,999,1870,.4378E-3,.5135E-4,0
STARLINK-34465,2025-130A,2025-10-09T19:14:15.937440,15.39651673,.00004774,53.1589,70.6619,43.7941,316.3101,0,U,64438,999,1758,.13545245E-2,.54223E-3,0
STARLINK-34456,2025-130B,2025-10-09T19:07:33.707424,15.39655078,.00003624,53.1589,70.6329,63.3139,296.7903,0,U,64439,999,1758,.13961575E-2,.55921E-3,0
STARLINK-34410,2025-130C,2025-10-09T19:00:52.882272,15.39666057,.00004188,53.1534,70.6037,81.7184,278.3868,0,U,64440,999,1758,.14938325E-2,.59915E-3,0
STARLINK-34453,2025-130D,2025-10-09T18:54:11.550816,15.39648984,.0000659,53.1584,70.5744,65.4765,294.6309,0,U,64441,999,1758,.12840673E-2,.51358E-3,0
STARLINK-34404,2025-130E,2025-10-09T20:20:58.998912,15.39643160,.0000795,53.1541,70.2392,65.5042,294.6046,0,U,64442,999,1759,.11706E-2,.46746E-3,0
STARLINK-34403,2025-130F,2025-10-09T19:47:32.261280,15.39651028,.00019591,53.1574,70.0907,245.2864,114.7937,0,U,64443,999,1759,.10585913E-2,.42222E-3,0
STARLINK-34399,2025-130G,2025-10-09T19:40:51.471552,15.39681567,.00003431,53.1627,70.0592,94.7900,265.3144,0,U,64444,999,1759,.16887782E-2,.67892E-3,0
STARLINK-34398,2025-130H,2025-10-09T20:14:17.133504,15.39646161,.00011379,53.1582,70.2088,247.2762,112.8123,0,U,64445,999,1759,.11272134E-2,.44993E-3,0
STARLINK-34402,2025-130J,2025-10-09T10:46:44.978016,15.39629599,.0000976,53.1588,72.0145,72.9119,287.1992,0,U,64446,999,1753,.19379E-2,.77935E-3,0
STARLINK-34450,2025-130K,2025-10-09T18:27:26.803872,15.39613433,.00005218,53.1630,70.4537,12.9636,347.1383,0,U,64447,999,1758,.12491075E-2,.4988E-3,0
STARLINK-34433,2025-130L,2025-10-09T18:20:45.114720,15.39629105,.00016308,53.1577,70.4259,332.5321,27.5597,0,U,64448,999,1758,.12138719E-2,.48479E-3,0
STARLINK-34459,2025-130M,2025-10-09T19:34:10.860672,15.39662877,.00017967,53.1535,70.0304,92.8396,267.2814,0,U,64449,999,1759,.11172089E-2,.44614E-3,0
STARLINK-34361,2025-130N,2025-10-09T10:06:37.472256,15.39648306,.0001164,53.1576,71.8393,53.6240,306.4872,0,U,64450,999,1870,.12661E-2,.50627E-3,0
STARLINK-34392,2025-130P,2025-10-09T19:20:47.914368,15.39642605,.00007707,53.1597,69.9696,111.9383,248.1704,0,U,64451,999,1759,.1481852E-2,.5938E-3,0
STARLINK-34367,2025-130Q,2025-10-09T21:47:17.344032,15.39642875,.0000848,53.1591,69.9000,52.1552,307.9529,0,U,64452,999,1759,.1116E-2,.44535E-3,0
STARLINK-34221,2025-130R,2025-10-09T20:27:12.211488,15.39660533,.0005359,53.1543,70.2628,103.1228,257.0375,0,U,64453,999,1759,.10123247E-2,.40376E-3,0
STARLINK-34282,2025-130S,2025-10-09T09:23:24.406080,15.30232360,.0001251,53.1552,73.7842,78.4519,281.6622,0,U,64454,999,1750,.96582E-3,.28384E-3,0
STARLINK-34295,2025-130T,2025-10-09T10:32:53.453184,15.39648447,.0002743,53.1530,71.9507,94.8475,265.2843,0,U,64455,999,1753,.11315E-2,.45175E-3,0
STARLINK-34430,2025-130U,2025-10-09T18:13:34.909248,15.39651091,.00000786,53.1601,70.3901,261.0917,99.0079,0,U,64456,999,1758,.11069509E-2,.4418E-3,0
STARLINK-34445,2025-130V,2025-10-09T19:33:36.786240,15.39689090,.00135206,53.1479,70.0368,237.0446,122.9259,0,U,64457,999,1759,.12880452E-2,.51739E-3,0
STARLINK-34439,2025-130W,2025-10-09T19:27:00.548928,15.39614559,.00019666,53.1566,69.9974,77.6239,282.4986,0,U,64458,999,1759,.11421461E-2,.45551E-3,0
STARLINK-34421,2025-130X,2025-10-09T17:46:50.304000,15.39661300,.00007951,53.1599,70.2743,111.0843,249.0247,0,U,64459,999,1758,.14013675E-2,.56144E-3,0
STARLINK-34423,2025-130Y,2025-10-09T19:13:38.178048,15.39622760,.00016229,53.1562,69.9392,73.7786,286.3397,0,U,64460,999,1759,.10692125E-2,.42612E-3,0
STARLINK-34418,2025-130Z,2025-10-09T22:13:53.272992,15.39654292,.0000225,53.1626,69.2981,119.5653,240.5374,0,U,64461,999,1761,.11559E-2,.46169E-3,0
STARLINK-34336,2025-130AA,2025-10-09T22:14:02.537664,15.30209928,.000072,53.1576,71.3642,105.7742,254.3338,0,U,64462,999,1758,.90504E-3,.2655E-3,0
STARLINK-34400,2025-130AB,2025-10-09T18:56:50.179488,15.30195580,.00008187,53.1555,71.9999,86.3467,273.7627,0,U,64463,999,1756,.11865744E-2,.34944E-3,0
STARLINK-34429,2025-130AC,2025-10-09T21:53:49.735680,15.39661505,.0000483,53.1594,69.2102,126.5489,233.5560,0,U,64464,999,1761,.13714E-2,.54925E-3,0
STARLINK-34449,2025-130AD,2025-10-08T18:49:03.476928,15.34217411,.00009186,53.1596,74.2500,51.8923,308.2162,0,U,64465,999,1744,-.80808009E-2,-.262567E-2,0
STARLINK-34493,2025-133A,2025-10-10T04:31:51.293568,15.39632624,.00011272,53.1569,98.8728,74.5890,285.5239,0,U,64472,999,1810,.12017511E-2,.47992E-3,0
STARLINK-34492,2025-133B,2025-10-10T04:25:39.170496,15.39641486,.00005827,53.1550,98.8462,63.0220,297.0845,0,U,64473,999,1810,.15409432E-2,.61782E-3,0
STARLINK-34474,2025-133C,2025-10-09T22:11:15.669024,15.39647225,.0001036,53.1550,100.0674,94.3637,265.7486,0,U,64474,999,1804,.10864E-2,.43343E-3,0
STARLINK-34523,2025-133D,2025-10-09T12:44:11.884704,15.39628968,.000103,53.1584,101.8739,69.6914,290.4201,0,U,64475,999,1798,.15425E-2,.61818E-3,0
STARLINK-34496,2025-133E,2025-10-09T22:04:34.779936,15.39642529,.0001226,53.1574,100.0368,59.4304,300.6821,0,U,64476,999,1806,.15412E-2,.61795E-3,0
STARLINK-34375,2025-133F,2025-10-10T07:19:13.918944,15.39656784,.00021597,53.1539,98.1755,83.9573,276.1678,0,U,64477,999,1812,.16362559E-2,.65697E-3,0
STARLINK-34490,2025-133G,2025-10-09T12:30:49.576032,15.39667648,.0004272,53.1564,101.8156,307.2421,52.8193,0,U,64478,999,1800,.16147E-2,.64855E-3,0
STARLINK-34528,2025-133H,2025-10-09T20:24:24.514272,15.39632883,.0000686,53.1587,100.3112,329.7328,30.3637,0,U,64479,999,1803,.98000984E-3,.39017E-3,0
STARLINK-34518,2025-133J,2025-10-09T21:51:12.128256,15.39645526,.0001171,53.1573,99.9795,21.4622,338.6432,0,U,64480,999,1790,.10628E-2,.42384E-3,0
STARLINK-34526,2025-133K,2025-10-09T12:24:08.080416,15.39642220,.0001389,53.1560,101.7852,88.3096,271.8067,0,U,64481,999,1789,.85738E-3,.34073E-3,0
STARLINK-34527,2025-133L,2025-10-09T12:23:39.044832,15.39643531,.0000701,53.1612,101.7827,107.9795,252.1286,0,U,64482,999,1800,.1234E-2,.49318E-3,0
STARLINK-34420,2025-133M,2025-10-10T05:25:41.431008,15.39639522,.00008585,53.1604,98.3891,106.6897,253.4202,0,U,64483,999,1811,.18675161E-2,.75086E-3,0
STARLINK-34509,2025-133N,2025-10-09T21:37:48.782784,15.39642249,.0000083,53.1556,99.9214,67.7526,292.3488,0,U,64484,999,1806,.12595E-2,.50348E-3,0
STARLINK-34409,2025-133P,2025-10-10T05:19:00.636096,15.39642537,.00011241,53.1615,98.3606,91.3468,268.7666,0,U,64485,999,1811,.20231129E-2,.81452E-3,0
STARLINK-34520,2025-133Q,2025-10-10T05:18:32.094720,15.39633003,.00024614,53.1541,98.3591,86.6143,273.5143,0,U,64486,999,1811,.13101063E-2,.52389E-3,0
STARLINK-34477,2025-133R,2025-10-10T05:12:19.790208,15.39642889,.00027089,53.1546,98.3315,87.0512,273.0803,0,U,64487,999,1811,.12564141E-2,.50229E-3,0
STARLINK-34217,2025-133S,2025-10-10T05:11:50.007264,15.39656329,.000011,53.1613,98.3284,28.3646,331.7365,0,U,64488,999,1800,.18679765E-2,.75148E-3,0
STARLINK-34307,2025-133T,2025-10-10T05:05:38.889888,15.39621378,.00030547,53.1545,98.3031,80.9375,279.1976,0,U,64489,999,1809,.1238087E-2,.49451E-3,0
STARLINK-34505,2025-133U,2025-10-10T05:05:09.191616,15.39659421,.00011214,53.1595,98.2993,73.5125,286.6003,0,U,64490,999,1809,.2207319E-2,.89044E-3,0
STARLINK-34530,2025-133V,2025-10-10T04:58:57.481536,15.39633271,.00027934,53.1545,98.2720,81.3902,278.7419,0,U,64491,999,1809,.11661876E-2,.46556E-3,0
STARLINK-34522,2025-133W,2025-10-10T04:58:27.115392,15.39668523,.00006136,53.1628,98.2686,279.8961,80.1975,0,U,64492,999,1811,.14720897E-2,.59034E-3,0
STARLINK-34462,2025-133X,2025-10-10T04:52:15.733632,15.39634909,.00012327,53.1545,98.2422,77.0011,283.1132,0,U,64493,999,1811,.13466701E-2,.53874E-3,0
STARLINK-34226,2025-133Y,2025-10-10T04:51:46.603872,15.39636117,.000112,53.1585,98.2401,85.2799,274.8334,0,U,64494,999,1794,.18691888E-2,.75146E-3,0
STARLINK-34364,2025-133Z,2025-10-10T05:10:32.132352,15.39660858,.00012285,53.1600,94.0363,68.1076,292.0059,0,U,64495,999,1817,.21942049E-2,.88511E-3,0
STARLINK-34268,2025-133AA,2025-10-10T04:45:34.441920,15.39641256,.00015778,53.1605,98.2118,86.0430,274.0755,0,U,64496,999,1811,.12117185E-2,.48411E-3,0
STARLINK-34363,2025-133AB,2025-10-10T04:38:53.782656,15.39642205,.00020192,53.1563,98.1828,87.0418,273.0817,0,U,64497,999,1811,.16083536E-2,.64528E-3,0
STARLINK-34427,2025-133AC,2025-10-10T04:38:23.998848,15.39639250,.00012786,53.1530,98.1805,78.8274,281.2875,0,U,64498,999,1811,.16445994E-2,.65997E-3,0
STARLINK-34280,2025-137A,2025-10-10T07:36:52.355232,15.39646534,.00016243,53.1594,319.9963,36.6562,323.4553,0,U,64594,999,1762,.15080794E-2,.60455E-3,0
STARLINK-34517,2025-137B,2025-10-09T12:08:20.510880,15.39627466,.000146,53.1590,323.4637,68.8054,291.3107,0,U,64595,999,1750,.15139E-2,.60654E-3,0
STARLINK-34510,2025-137C,2025-10-10T02:36:22.777344,15.39650824,.00017096,53.1593,320.8262,92.9462,267.1738,0,U,64596,999,1759,.86998227E-3,.34592E-3,0
